[{"OBJECT_NAME":"OOV-CUBE (TUBSAT-30)","OBJECT_ID":"2024-128F","EPOCH":"2026-03-04T10:30:09.946368","MEAN_MOTION":15.02202769,"ECCENTRICITY":0.00549615,"INCLINATION":61.9938,"RA_OF_ASC_NODE":230.6838,"ARG_OF_PERICENTER":111.3065,"MEAN_ANOMALY":249.3906,"EPHEMERIS_TYPE":0,"CLASSIFICATION_TYPE":"U","NORAD_CAT_ID":60240,"ELEMENT_SET_NO":999,"REV_AT_EPOCH":9037,"BSTAR":0.00040817128,"MEAN_MOTION_DOT":5.371e-5,"MEAN_MOTION_DDOT":0},{"OBJECT_NAME":"ROBUSTA-3A (MEDITERRANEE)","OBJECT_ID":"2024-128J","EPOCH":"2026-03-04T11:59:06.538272","MEAN_MOTION":15.09936684,"ECCENTRICITY":0.00522891,"INCLINATION":61.9858,"RA_OF_ASC_NODE":217.9926,"ARG_OF_PERICENTER":107.4533,"MEAN_ANOMALY":253.2287,"EPHEMERIS_TYPE":0,"CLASSIFICATION_TYPE":"U","NORAD_CAT_ID":60243,"ELEMENT_SET_NO":999,"REV_AT_EPOCH":9060,"BSTAR":0.00094137814,"MEAN_MOTION_DOT":0.00015664,"MEAN_MOTION_DDOT":0},{"OBJECT_NAME":"LASARSAT","OBJECT_ID":"2024-247Q","EPOCH":"2026-03-04T04:07:02.053056","MEAN_MOTION":15.3975239,"ECCENTRICITY":0.00028716,"INCLINATION":44.9765,"RA_OF_ASC_NODE":129.4627,"ARG_OF_PERICENTER":350.2653,"MEAN_ANOMALY":9.8178,"EPHEMERIS_TYPE":0,"CLASSIFICATION_TYPE":"U","NORAD_CAT_ID":62391,"ELEMENT_SET_NO":999,"REV_AT_EPOCH":6709,"BSTAR":0.0010423512,"MEAN_MOTION_DOT":0.00042032,"MEAN_MOTION_DDOT":0},{"OBJECT_NAME":"CROCUBE","OBJECT_ID":"2024-247T","EPOCH":"2026-03-04T04:55:41.656800","MEAN_MOTION":15.40856803,"ECCENTRICITY":0.00030193,"INCLINATION":44.9726,"RA_OF_ASC_NODE":127.9459,"ARG_OF_PERICENTER":338.1177,"MEAN_ANOMALY":21.9582,"EPHEMERIS_TYPE":0,"CLASSIFICATION_TYPE":"U","NORAD_CAT_ID":62394,"ELEMENT_SET_NO":999,"REV_AT_EPOCH":6711,"BSTAR":0.0010733311,"MEAN_MOTION_DOT":0.00044929,"MEAN_MOTION_DDOT":0}]
